[{"OBJECT_NAME":"STARLINK-6137","OBJECT_ID":"2023-090BH","EPOCH":"2026-03-09T12:55:09.307488","MEAN_MOTION":15.02536705,"ECCENTRICITY":0.00013314,"INCLINATION":43.0039,"RA_OF_ASC_NODE":262.1869,"ARG_OF_PERICENTER":264.971,"MEAN_ANOMALY":95.098,"EPHEMERIS_TYPE":0,"CLASSIFICATION_TYPE":"U","NORAD_CAT_ID":57156,"ELEMENT_SET_NO":999,"REV_AT_EPOCH":15054,"BSTAR":2.8263771e-5,"MEAN_MOTION_DOT":1.78e-6,"MEAN_MOTION_DDOT":0},{"OBJECT_NAME":"TITAN 4B DEB","OBJECT_ID":"2000-047D","EPOCH":"2026-03-09T07:18:39.687264","MEAN_MOTION":14.9350217,"ECCENTRICITY":0.00548001,"INCLINATION":67.9962,"RA_OF_ASC_NODE":173.9856,"ARG_OF_PERICENTER":92.7359,"MEAN_ANOMALY":268.0056,"EPHEMERIS_TYPE":0,"CLASSIFICATION_TYPE":"U","NORAD_CAT_ID":35415,"ELEMENT_SET_NO":999,"REV_AT_EPOCH":6621,"BSTAR":7.6847696e-5,"MEAN_MOTION_DOT":7.12e-6,"MEAN_MOTION_DDOT":0}]
